STARLINK-37403          
1 68788U 26086Y   26117.74541705 -.00463407  74853-4 -11230-2 0  9995
2 68788  97.2768 153.1972 0003925 192.0743 168.0440 15.96254890  1217
