{
  "norad_id": 68788,
  "name": "STARLINK-37403",
  "history": [
    {
      "epoch": "2026-04-27T17:53:24.033120Z",
      "apogee_km": 287.43566674757403,
      "perigee_km": 282.20444590351144,
      "latitude_deg": -7.497944603847114e-07,
      "longitude_deg": 29.116243634860062,
      "height_km": 290.5763253321898,
      "semi_major_axis_km": 6662.957056325542,
      "eccentricity": 0.00039256,
      "inclination_deg": 97.2768,
      "raan_deg": 153.1972,
      "arg_perigee_deg": 192.0743,
      "mean_anomaly_deg": 168.044,
      "mean_motion_rev_day": 15.9625489
    }
  ]
}